0 COSMOS 2251 DEB
1 39109U 93036BTY 13282.68988632  .00001336  00000-0  31260-3 0   257
2 39109 074.0520 053.4766 0079158 218.2435 141.3352 14.53750141 95675
0 COSMOS 2251 DEB
1 39109U 93036BTY 13285.64896280  .00002066  00000-0  47939-3 0   276
2 39109 074.0568 047.8947 0079077 211.5733 148.1033 14.53765897 96106
0 COSMOS 2251 DEB
1 39109U 93036BTY 13290.60363260  .00002280  00000-0  52830-3 0   280
2 39109 074.0585 038.5464 0078587 201.1827 158.6410 14.53789850 96829
0 COSMOS 2251 DEB
1 39109U 93036BTY 13291.63583955  .00002340  00000-0  54159-3 0   293
2 39109 074.0612 036.6022 0079266 198.4510 161.3865 14.53795330 96972
0 COSMOS 2251 DEB
1 39109U 93036BTY 13293.63144004  .00002563  00000-0  59291-3 0   304
2 39109 074.0582 032.8283 0078163 195.3224 164.5687 14.53807056 97267
0 COSMOS 2251 DEB
1 39109U 93036BTY 13295.62702317  .00002563  00000-0  59291-3 0   313
2 39109 074.0582 029.0642 0078155 191.0481 168.8970 14.53817401 97552
